[{"OBJECT_NAME":"STARLINK-1090","OBJECT_ID":"2020-001BG","EPOCH":"2026-03-10T00:00:02.999808","MEAN_MOTION":15.20362352,"ECCENTRICITY":0.00018062,"INCLINATION":53.1145,"RA_OF_ASC_NODE":304.836,"ARG_OF_PERICENTER":72.8896,"MEAN_ANOMALY":4.5449,"EPHEMERIS_TYPE":0,"CLASSIFICATION_TYPE":"U","NORAD_CAT_ID":44968,"ELEMENT_SET_NO":999,"REV_AT_EPOCH":574,"BSTAR":0.056176285,"MEAN_MOTION_DOT":0.01344146,"MEAN_MOTION_DDOT":0},{"OBJECT_NAME":"IRIS-F2","OBJECT_ID":"2025-009CD","EPOCH":"2026-03-09T16:59:24.417600","MEAN_MOTION":15.24984435,"ECCENTRICITY":0.00049485,"INCLINATION":97.3936,"RA_OF_ASC_NODE":149.6497,"ARG_OF_PERICENTER":359.0166,"MEAN_ANOMALY":1.1061,"EPHEMERIS_TYPE":0,"CLASSIFICATION_TYPE":"U","NORAD_CAT_ID":62684,"ELEMENT_SET_NO":999,"REV_AT_EPOCH":12129,"BSTAR":0.00032095462,"MEAN_MOTION_DOT":7.938e-5,"MEAN_MOTION_DDOT":0}]
